ONEWEB-0032             
1 45141U 20008L   24070.90475058 -.00000025  00000+0 -10858-3 0  9999
2 45141  87.8962 200.8600 0001654 100.5946 259.5368 13.10366912199823
ONEWEB-0033             
1 45142U 20008M   24070.87872897  .00000456  00000+0  12702-2 0  9993
2 45142  87.8968 200.8733 0001426 106.8915 253.2368 13.10376147199731
ONEWEB-0035             
1 45143U 20008N   24070.91122082 -.00000393  00000+0 -11632-2 0  9996
2 45143  87.8968 200.8434 0001525 104.5595 255.5701 13.10370484199463
ONEWEB-0036             
1 45144U 20008P   24070.90148878 -.00000053  00000+0 -18760-3 0  9990
2 45144  87.8964 200.8061 0001914 104.4251 255.7089 13.10369588199897
ONEWEB-0038             
1 45145U 20008Q   24071.56497140 -.00000407  00000+0 -11836-2 0  9992
2 45145  87.9035 185.6100 0001971  80.7482 279.3869 13.11414662202648
ONEWEB-0039             
1 45146U 20008R   24071.41651664  .00000601  00000+0  16855-2 0  9990
2 45146  87.8971 200.7203 0002174  99.1682 260.9692 13.10376471200532
ONEWEB-0040             
1 45147U 20008S   24071.10455590  .00000456  00000+0  12690-2 0  9998
2 45147  87.8978 200.7771 0001745 101.5553 258.5770 13.10377077200205
ONEWEB-0041             
1 45148U 20008T   24070.84586433  .00000086  00000+0  11571-3 0  9997
2 45148  87.9483 176.1074 0019469  88.2234 272.1144 13.48447086206414
